NORAD_CAT_ID,OBJECT_NAME,OBJECT_TYPE,EPOCH,MEAN_MOTION,ECCENTRICITY,INCLINATION,RA_OF_ASC_NODE,ARG_OF_PERICENTER,MEAN_ANOMALY,BSTAR,MEAN_MOTION_DOT,MEAN_MOTION_DDOT,TLE_LINE0,TLE_LINE1,TLE_LINE2,SEMIMAJOR_AXIS,PERIOD,APOGEE,PERIGEE,DECAYED
51151.0,STARLINK-3361,PAYLOAD,2023-11-07 19:08:14,15.08784658,0.0001272,53.2168,177.5936,75.1072,285.0061,0.0012339,0.00019374,0.0,0 STARLINK-3361,1 51151U 22005AZ  23311.79739467  .00019374  00000-0  12339-2 0  9998,2 51151  53.2168 177.5936 0001272  75.1072 285.0061 15.08784658100951,6918.05,95.441,540.795,539.035,0.0
51151.0,STARLINK-3361,PAYLOAD,2023-11-08 01:29:47,15.08809765,0.000125,53.217,176.4056,97.9419,262.1715,0.0011623,0.00018243,0.0,0 STARLINK-3361,1 51151U 22005AZ  23312.06235852  .00018243  00000-0  11623-2 0  9997,2 51151  53.2170 176.4056 0001250  97.9419 262.1715 15.08809765100991,6917.973,95.439,540.703,538.973,0.0
51151.0,STARLINK-3361,PAYLOAD,2023-11-08 18:59:02,15.08846656,0.0001285,53.2165,173.1355,58.1097,302.002,0.00070518,0.00010955,0.0,0 STARLINK-3361,1 51151U 22005AZ  23312.79099612  .00010955  00000-0  70518-3 0  9990,2 51151  53.2165 173.1355 0001285  58.1097 302.0020 15.08846656101107,6917.86,95.437,540.614,538.836,0.0
51151.0,STARLINK-3361,PAYLOAD,2023-11-08 22:09:48,15.08857175,0.0001245,53.2166,172.5425,89.8565,270.257,0.00099066,0.00015521,0.0,0 STARLINK-3361,1 51151U 22005AZ  23312.92347290  .00015521  00000-0  99066-3 0  9996,2 51151  53.2166 172.5425 0001245  89.8565 270.2570 15.08857175100019,6917.828,95.436,540.554,538.832,0.0
51151.0,STARLINK-3361,PAYLOAD,2023-11-08 23:45:11,15.08863453,0.000132,53.2167,172.2409,93.0926,267.0217,0.0012189,0.00019176,0.0,0 STARLINK-3361,1 51151U 22005AZ  23312.98971131  .00019176  00000-0  12189-2 0  9999,2 51151  53.2167 172.2409 0001320  93.0926 267.0217 15.08863453101133,6917.809,95.436,540.587,538.761,0.0
51151.0,STARLINK-3361,PAYLOAD,2023-11-09 20:25:10,15.08876137,0.0001964,53.2162,168.3855,143.7962,216.3163,0.00029217,4.369e-05,0.0,0 STARLINK-3361,1 51151U 22005AZ  23313.85081453  .00004369  00000-0  29217-3 0  9994,2 51151  53.2162 168.3855 0001964 143.7962 216.3163 15.08876137101260,6917.77,95.435,540.994,538.276,0.0
51151.0,STARLINK-3361,PAYLOAD,2023-11-09 22:00:33,15.08872036,0.0001185,53.216,168.0801,89.2124,270.9004,0.0004517,6.914e-05,0.0,0 STARLINK-3361,1 51151U 22005AZ  23313.91705675  .00006914  00000-0  45170-3 0  9994,2 51151  53.2160 168.0801 0001185  89.2124 270.9004 15.08872036100167,6917.782,95.436,540.467,538.828,0.0
51151.0,STARLINK-3361,PAYLOAD,2023-11-10 07:32:52,15.08860368,0.0001258,53.216,166.2959,83.7938,276.3197,0.00024338,3.59e-05,0.0,0 STARLINK-3361,1 51151U 22005AZ  23314.31449449  .00003590  00000-0  24338-3 0  9993,2 51151  53.2160 166.2959 0001258  83.7938 276.3197 15.08860368101332,6917.818,95.436,540.553,538.813,0.0
51151.0,STARLINK-3361,PAYLOAD,2023-11-10 20:15:57,15.0884519,0.0001304,53.2154,163.9145,96.0303,264.0838,-6.2781e-05,-1.287e-05,0.0,0 STARLINK-3361,1 51151U 22005AZ  23314.84441472 -.00001287  00000-0 -62781-4 0  9997,2 51151  53.2154 163.9145 0001304  96.0303 264.0838 15.08845190101412,6917.865,95.437,540.632,538.827,0.0
51151.0,STARLINK-3361,PAYLOAD,2023-11-10 23:26:43,15.08851511,0.0001428,53.2163,163.3214,94.1282,265.9874,3.9188e-06,-2.26e-06,0.0,0 STARLINK-3361,1 51151U 22005AZ  23314.97689415 -.00000226  00000-0  39188-5 0  9999,2 51151  53.2163 163.3214 0001428  94.1282 265.9874 15.08851511100328,6917.845,95.437,540.698,538.722,0.0
51151.0,STARLINK-3361,PAYLOAD,2023-11-11 20:06:45,15.08831816,0.0001524,53.216,159.4538,90.8585,269.2582,-0.00013266,-2.398e-05,0.0,0 STARLINK-3361,1 51151U 22005AZ  23315.83802556 -.00002398  00000-0 -13266-3 0  9998,2 51151  53.2160 159.4538 0001524  90.8585 269.2582 15.08831816101562,6917.905,95.438,540.825,538.716,0.0
51151.0,STARLINK-3361,PAYLOAD,2023-11-12 07:14:28,15.0882179,0.0001417,53.2163,157.3748,97.134,262.9813,-9.5888e-05,-1.813e-05,0.0,0 STARLINK-3361,1 51151U 22005AZ  23316.30171561 -.00001813  00000-0 -95888-4 0  9998,2 51151  53.2163 157.3748 0001417  97.1340 262.9813 15.08821790101630,6917.936,95.439,540.781,538.821,0.0
51151.0,STARLINK-3361,PAYLOAD,2023-11-12 18:22:10,15.08836398,0.0001178,53.2171,155.2952,78.9885,281.124,0.00022143,3.238e-05,0.0,0 STARLINK-3361,1 51151U 22005AZ  23316.76539531  .00003238  00000-0  22143-3 0  9997,2 51151  53.2171 155.2952 0001178  78.9885 281.1240 15.08836398101703,6917.891,95.438,540.571,538.941,0.0
51151.0,STARLINK-3361,PAYLOAD,2023-11-12 19:57:33,15.08840136,0.0001339,53.2149,154.9959,90.4912,269.6233,0.00034618,5.226e-05,0.0,0 STARLINK-3361,1 51151U 22005AZ  23316.83163227  .00005226  00000-0  34618-3 0  9999,2 51151  53.2149 154.9959 0001339  90.4912 269.6233 15.08840136100606,6917.88,95.438,540.671,538.819,0.0
51151.0,STARLINK-3361,PAYLOAD,2023-11-12 23:08:19,15.08844444,0.0001337,53.215,154.4008,92.3216,267.7929,0.00045578,6.974e-05,0.0,0 STARLINK-3361,1 51151U 22005AZ  23316.96411194  .00006974  00000-0  45578-3 0  9990,2 51151  53.2150 154.4008 0001337  92.3216 267.7929 15.08844444101736,6917.867,95.437,540.657,538.807,0.0
51151.0,STARLINK-3361,PAYLOAD,2023-11-13 13:26:47,15.08853558,0.0001279,53.2142,151.7246,91.7083,268.4056,0.00088035,0.00013756,0.0,0 STARLINK-3361,1 51151U 22005AZ  23317.56027290  .00013756  00000-0  88035-3 0  9998,2 51151  53.2142 151.7246 0001279  91.7083 268.4056 15.08853558100713,6917.839,95.437,540.589,538.819,0.0
51151.0,STARLINK-3361,PAYLOAD,2023-11-14 13:17:33,15.08861666,0.0003058,53.2152,147.2627,115.0821,245.0488,0.00048498,7.443e-05,0.0,0 STARLINK-3361,1 51151U 22005AZ  23318.55385886  .00007443  00000-0  48498-3 0  9991,2 51151  53.2152 147.2627 0003058 115.0821 245.0488 15.08861666100869,6917.814,95.436,541.795,537.564,0.0
51151.0,STARLINK-3361,PAYLOAD,2023-11-14 19:39:05,15.08855206,0.000215,53.2146,146.0749,100.9931,259.1303,7.7813e-05,9.51e-06,0.0,0 STARLINK-3361,1 51151U 22005AZ  23318.81881781  .00000951  00000-0  77813-4 0  9996,2 51151  53.2146 146.0749 0002150 100.9931 259.1303 15.08855206102015,6917.834,95.437,541.186,538.212,0.0
51151.0,STARLINK-3361,PAYLOAD,2023-11-15 13:08:20,15.08846298,0.0001908,53.2116,142.8031,99.7486,260.3722,-5.3347e-05,-1.137e-05,0.0,0 STARLINK-3361,1 51151U 22005AZ  23319.54745606 -.00001137  00000-0 -53347-4 0  9997,2 51151  53.2116 142.8031 0001908  99.7486 260.3722 15.08846298101019,6917.861,95.437,541.046,538.406,0.0
51151.0,STARLINK-3361,PAYLOAD,2023-11-15 22:40:39,15.08843581,0.000182,53.2128,141.0193,100.0863,260.0334,-6.5091e-05,-1.324e-05,0.0,0 STARLINK-3361,1 51151U 22005AZ  23319.94489756 -.00001324  00000-0 -65091-4 0  9999,2 51151  53.2128 141.0193 0001820 100.0863 260.0334 15.08843581101074,6917.869,95.437,540.993,538.475,0.0
51151.0,STARLINK-3361,PAYLOAD,2023-11-16 20:56:03,15.08840644,0.0001349,53.2154,136.8561,93.1069,267.0077,3.7308e-05,3.06e-06,0.0,0 STARLINK-3361,1 51151U 22005AZ  23320.87226057  .00000306  00000-0  37308-4 0  9993,2 51151  53.2154 136.8561 0001349  93.1069 267.0077 15.08840644101214,6917.878,95.438,540.677,538.81,0.0
51151.0,STARLINK-3361,PAYLOAD,2023-11-17 11:14:31,15.08840196,0.0001566,53.2177,134.1791,88.5795,271.5377,8.8367e-05,1.119e-05,0.0,0 STARLINK-3361,1 51151U 22005AZ  23321.46842023  .00001119  00000-0  88367-4 0  9990,2 51151  53.2177 134.1791 0001566  88.5795 271.5377 15.08840196101305,6917.88,95.438,540.828,538.661,0.0
51151.0,STARLINK-3361,PAYLOAD,2023-11-18 11:05:18,15.08839853,0.0001475,53.2164,129.7189,88.1541,271.962,7.3111e-05,8.76e-06,0.0,0 STARLINK-3361,1 51151U 22005AZ  23322.46202099  .00000876  00000-0  73111-4 0  9994,2 51151  53.2164 129.7189 0001475  88.1541 271.9620 15.08839853102568,6917.881,95.438,540.766,538.725,0.0
51151.0,STARLINK-3361,PAYLOAD,2023-11-18 17:26:51,15.08839621,0.0001429,53.2158,128.5292,88.7043,271.4112,8.1467e-05,1.009e-05,0.0,0 STARLINK-3361,1 51151U 22005AZ  23322.72698082  .00001009  00000-0  81467-4 0  9996,2 51151  53.2158 128.5292 0001429  88.7043 271.4112 15.08839621101490,6917.882,95.438,540.735,538.758,0.0
51151.0,STARLINK-3361,PAYLOAD,2023-11-19 10:56:05,15.08844058,0.0001479,53.2158,125.258,88.3717,271.7445,7.731e-05,9.43e-06,0.0,0 STARLINK-3361,1 51151U 22005AZ  23323.45561776  .00000943  00000-0  77310-4 0  9994,2 51151  53.2158 125.2580 0001479  88.3717 271.7445 15.08844058101608,6917.868,95.437,540.756,538.71,0.0
51151.0,STARLINK-3361,PAYLOAD,2023-11-19 17:17:37,15.08847232,0.0001339,53.2154,124.0685,89.4507,270.6638,0.00010326,1.356e-05,0.0,0 STARLINK-3361,1 51151U 22005AZ  23323.72057386  .00001356  00000-0  10326-3 0  9993,2 51151  53.2154 124.0685 0001339  89.4507 270.6638 15.08847232102757,6917.858,95.437,540.65,538.797,0.0
51151.0,STARLINK-3361,PAYLOAD,2023-11-20 13:57:38,15.08839683,0.0001321,53.217,120.2038,87.9274,272.187,6.9825e-05,8.24e-06,0.0,0 STARLINK-3361,1 51151U 22005AZ  23324.58169857  .00000824  00000-0  69825-4 0  9993,2 51151  53.2170 120.2038 0001321  87.9274 272.1870 15.08839683101777,6917.881,95.438,540.66,538.833,0.0
51151.0,STARLINK-3361,PAYLOAD,2023-11-20 17:08:24,15.08842864,0.0001389,53.2181,119.6091,93.4601,266.655,6.9358e-05,8.16e-06,0.0,0 STARLINK-3361,1 51151U 22005AZ  23324.71417631  .00000816  00000-0  69358-4 0  9996,2 51151  53.2181 119.6091 0001389  93.4601 266.6550 15.08842864102904,6917.872,95.437,540.698,538.776,0.0
51151.0,STARLINK-3361,PAYLOAD,2023-11-21 10:37:39,15.08840639,0.0001469,53.218,116.3353,105.1548,254.9607,-4.0662e-05,-9.35e-06,0.0,0 STARLINK-3361,1 51151U 22005AZ  23325.44281989 -.00000935  00000-0 -40662-4 0  9993,2 51151  53.2180 116.3353 0001469 105.1548 254.9607 15.08840639103012,6917.878,95.438,540.76,538.727,0.0
51151.0,STARLINK-3361,PAYLOAD,2023-11-21 13:48:25,15.0884205,0.0001382,53.218,115.7412,103.1879,256.9267,-2.1807e-05,-6.35e-06,0.0,0 STARLINK-3361,1 51151U 22005AZ  23325.57529833 -.00000635  00000-0 -21807-4 0  9997,2 51151  53.2180 115.7412 0001382 103.1879 256.9267 15.08842050101921,6917.874,95.437,540.695,538.783,0.0
